[
    {
        "Altitude(m)": 612502.2502812662,
        "Argument of Periapsis(deg)": 0.0,
        "Eccentricity": 0.0,
        "Inclination(deg)": 60.0,
        "Latitude(deg)": -28.136153279671447,
        "Longitude(deg)": -62.85173281403076,
        "Mean Anomaly(deg)": -32.72730000000003,
        "RAAN(deg)": 55.00000000000001,
        "Satellite Name": "Test1 262",
        "Satellite Number": 262,
        "Semi-Major Axis(m)": 6980739.136638005,
        "Time(s)": 0
    },
    {
        "Altitude(m)": 612308.6974295399,
        "Argument of Periapsis(deg)": 0.00010418945913296404,
        "Eccentricity": 0.0,
        "Inclination(deg)": 60.0,
        "Latitude(deg)": -27.623208390169182,
        "Longitude(deg)": -62.49825847052613,
        "Mean Anomaly(deg)": -32.10719385453818,
        "RAAN(deg)": 54.999579950860266,
        "Satellite Name": "Test1 262",
        "Satellite Number": 262,
        "Semi-Major Axis(m)": 6980739.136638005,
        "Time(s)": 10
    }
]